{{Infobox Planet  
| name = 877 Walküre
| image = 
| caption = 
| discovery=yes | physical_characteristics = yes | bgcolour=#FFFFC0
| discovery_ref = 
| discoverer = [[格里高利·诺伊明|格里高利·诺伊明]]
| discovery_site = [[克里米亚|克里米亚]][[西門子天文台|西門子天文台]]
| discovered =  1915年9月13日
| mp_name = 877
| alt_names = 1915 S7
| named_after = [[女武神|女武神]]
| mp_category=[[小行星带|主带小行星]]
| orbit_ref = <ref>[http://ssd.jpl.nasa.gov/sbdb.cgi?sstr=877 877 Walkure (1915 S7)]</ref>
| epoch = 2013年4月18日
| semimajor= 2.091542570901085AU
| perihelion= 2.487133108324261AU
| aphelion= 2.882723645747437[[天文单位|AU]]
| eccentricity =0.1590548314841543				
| period = 1432.672649571377[[日|地球日]]<br>3.92[[年|地球年]] 
| inclination=4.256032947930962[[角度|°]]
| asc_node=116.4048871480976°
| arg_peri=276.0518498240403°	
| mean_anomaly=289.0226952537117°
| avg_speed=
 | dimensions= 38.41千米
 | mass=
 | density=
 | surface_grav=
 | escape_velocity=
 | rotation=17.424小时
 | spectral_type=[[F-型小行星|F型]]
 | magnitude=
 | abs_magnitude=10.71
 | albedo=0.0623
 | single_temperature=
}}
'''小行星877'''（'''877 Walküre'''），是由[[俄国|俄国]][[天文学家|天文学家]][[格里高利·诺伊明|格里高利·诺伊明]]于1915年9月13日在[[俄罗斯帝国|俄罗斯帝国]][[克里米亚|克里米亚]][[西門子天文台|西門子天文台]]发现的[[小行星带|主带]][[小行星|小行星]]。

小行星877以欧洲神话中的[[女武神|女武神]]命名。

== 参考资料 ==
{{Reflist}}

{{Minor Planet Number|(876)[[小行星876|小行星876]]|(878)[[小行星878|小行星878]]}}

[[Category:小行星带天体|Category:小行星带天体]]
[[Category:1915年发现的小行星|Category:1915年发现的小行星]]
[[Category:F-型小行星|Category:F-型小行星]]